HST                     
1 20580U 90037B   26168.14321654  .00005620  00000+0  17616-3 0  9999
2 20580  28.4720  80.8753 0001816 141.8279 218.2446 15.30747004788561
POLAR                   
1 23802U 96013A   26167.26675754  .00000137  00000+0  00000+0 0  9997
2 23802  79.8528 227.0631 6469542 209.1106  89.7802  1.29846135144846
SWAS                    
1 25560U 98071A   26168.47951823  .00002287  00000+0  14832-3 0  9994
2 25560  69.8947 226.7656 0008645 259.8131 100.2058 15.09627438497314
CXO                     
1 25867U 99040B   26169.37713324  .00000529  00000+0  00000+0 0  9998
2 25867  56.2189 116.5542 7835469 310.3049   0.1821  0.37804062 17322
XMM-NEWTON              
1 25989U 99066A   26169.34668136 -.00000002  00000+0  00000+0 0  9995
2 25989  64.4794 282.9700 4673195  64.9038   0.0897  0.50127427 23010
TERRA                   
1 25994U 99068A   26168.50570941  .00000314  00000+0  72838-4 0  9994
2 25994  97.9456 218.0393 0001606 188.2201 279.2176 14.61103332409654
CLUSTER II-FM7 (SAMBA)  
1 26410U 00041A   26168.13893488  .00013373  00000+0  00000+0 0  9990
2 26410 149.9159  50.9864 9054007 268.1291 359.6411  0.44868040 20307
CLUSTER II-FM8 (TANGO)  
1 26464U 00045B   26166.18760269  .00011725  00000+0  00000+0 0  9995
2 26464 150.1504  51.7507 9057004 268.7261   2.8044  0.44418308 20307
ODIN                    
1 26702U 01007A   26168.09444793  .00153404  00000+0  98467-3 0  9991
2 26702  97.3826 209.0303 0006702 143.1796 216.9931 15.75772883389382
TIMED                   
1 26998U 01055B   26168.34269846  .00000838  00000+0  79645-4 0  9993
2 26998  74.0674 234.7054 0001123 335.2463  24.8667 14.95295029330849
CORIOLIS                
1 27640U 03001A   26168.47904147  .00000070  00000+0  53628-4 0  9996
2 27640  98.7125 175.3594 0013390 207.8782 152.1679 14.19944827214262
SORCE                   
1 27651U 03004A   26168.47162564  .00002046  00000+0  15722-3 0  9997
2 27651  39.9904 260.0556 0016431  51.3362 308.8900 15.03714325271948
MOST                    
1 27843U 03031D   26168.49287230  .00000039  00000+0  38148-4 0  9998
2 27843  98.7045 176.2146 0008739 249.4437 110.5803 14.21322549190759
SCISAT 1                
1 27858U 03036A   26168.42822493  .00000383  00000+0  53593-4 0  9991
2 27858  73.9283 170.8638 0008538 240.6549 119.3775 14.81447732231483
SWIFT                   
1 28485U 04047A   26166.40597521  .00042527  00000+0  35480-3 0  9998
2 28485  20.5516 198.6409 0001619 255.9834 104.0432 15.68175033186589
HINODE (SOLAR-B)        
1 29479U 06041A   26168.04910784  .00000550  00000+0  10291-3 0  9993
2 29479  98.0547 184.2037 0016020 290.2313  69.7169 14.68622988 54854
SHIJIAN-6 02A (SJ-6 02A)
1 29505U 06046A   26168.48737116  .00006343  00000+0  32489-3 0  9991
2 29505  97.6355 209.5564 0004513 123.3402 236.8263 15.16948312 72310
SHIJIAN-6 02B (SJ-6 02B)
1 29506U 06046B   26168.47962911  .00001224  00000+0  99440-4 0  9998
2 29506  97.7154 197.5367 0015396  59.6040 300.6703 15.01378598 70781
FGRST (GLAST)           
1 33053U 08029A   26168.49049940  .00002189  00000+0  74437-4 0  9993
2 33053  25.5804 202.3766 0007799 332.9313  27.0818 15.23947405995887
SDO                     
1 36395U 10005A   26167.50926725 -.00000097  00000+0  00000+0 0  9995
2 36395  34.6508  86.3517 0001708  44.3809 215.2958  1.00269934 60055
CRYOSAT 2               
1 36508U 10013A   26168.49502935  .00000184  00000+0  45028-4 0  9992
2 36508  92.0356 277.3763 0002151  89.7707 270.3747 14.51899236858123
X-SAT                   
1 37389U 11015C   26168.50634691  .00000070  00000+0  47227-4 0  9997
2 37389  98.3506 145.5148 0013901 347.6923  12.3916 14.25206192787724
GCOM-W1 (SHIZUKU)       
1 38337U 12025A   26168.45600159  .00000361  00000+0  90156-4 0  9991
2 38337  98.2021 109.0075 0001785  74.9241  44.9701 14.57124809749071
NUSTAR                  
1 38358U 12031A   26168.58334491  .00006205  00000+0  32990-3 0  9992
2 38358   6.0277  31.1710 0006666 116.4128 329.7152 15.08806380  1303
NEOSSAT                 
1 39089U 13009D   26168.48826106  .00000106  00000+0  51265-4 0  9999
2 39089  98.4177 348.5137 0009902 242.7674 117.2503 14.35826502696781
BRITE-AUSTRIA           
1 39091U 13009F   26168.41708633  .00000131  00000+0  59167-4 0  9996
2 39091  98.3994 347.8470 0009162 235.6981 124.3339 14.36542205697088
IRIS                    
1 39197U 13033A   26168.50158638  .00000759  00000+0  93167-4 0  9998
2 39197  97.9328   7.7776 0023527 320.7787  39.1722 14.85885670700425
HISAKI (SPRINT-A)       
1 39253U 13049A   26167.83421073  .00000116  00000+0  71628-4 0  9994
2 39253  29.7184 221.8078 0136865  13.9892 346.4420 13.55544715631377
CASSIOPE                
1 39265U 13055A   26168.49007027  .00043114 -52693-6  47039-3 0  9992
2 39265  80.9143  66.3545 0292641  61.4229 301.6117 15.25213955667713
STSAT-3                 
1 39422U 13066G   26168.51229794  .00001608  00000+0  12466-3 0  9994
2 39422  97.6223 138.3952 0011155  44.2788 315.9328 15.02756687684251
SWARM B                 
1 39451U 13067A   26168.52664778  .00002745  00000+0  97584-4 0  9991
2 39451  87.7438 342.2132 0003276  85.6122 274.5502 15.28553077683296
